{
    "STARLINK-1293": {
        "name": "STARLINK-1293",
        "l1": "1 45411C 20019BD  21289.12516406  .00007706  00000-0  51635-3 0  2899",
        "l2": "2 45411  53.0528 144.2777 0001992  74.4295 144.0555 15.06389667    10"
    },
    "STARLINK-1373": {
        "name": "STARLINK-1373",
        "l1": "1 45544C 20025P   21289.09238380  .00004254  00000-0  28514-3 0  2896",
        "l2": "2 45544  53.0521 114.4364 0001743  86.9288 218.6382 15.06374766    15"
    },
    "YAOGAN 15": {
        "name": "YAOGAN 15",
        "l1": "1 38354U 12029A   21289.45121111 -.00000027  00000-0  48372-4 0  9993",
        "l2": "2 38354 100.6494  78.0581 0025551 187.3758 172.6996 13.18266312450816"
    },
    "STARLINK-1008": {
        "name": "STARLINK-1008",
        "l1": "1 44714C 19074B   21289.05919910  .00005467  00000-0  36624-3 0  2895",
        "l2": "2 44714  53.0537 194.5794 0001399  76.3206   9.1779 15.06396016    11"
    },
    "THOR 7": {
        "name": "THOR 7",
        "l1": "1 40613U 15022A   21289.25535260 -.00000026  00000-0  00000-0 0  9993",
        "l2": "2 40613   0.0158 153.7200 0002577  46.2230 276.3518  1.00270383 23737"
    },
    "COSMOS 2428": {
        "name": "COSMOS 2428",
        "l1": "1 31792U 07029A   21289.37661950  .00000319  00000-0  19917-3 0  9992",
        "l2": "2 31792  70.9171 331.9737 0005878  46.6145 313.5464 14.12375703737473"
    },
    "STARLINK-1167": {
        "name": "STARLINK-1167",
        "l1": "1 45071C 20006AD  21289.14765200 -.00001577  00000-0 -10561-3 0  2892",
        "l2": "2 45071  53.0530 274.1849 0001290  79.2993  26.0573 15.06409183    12"
    },
    "YAOGAN 31 A": {
        "name": "YAOGAN 31 A",
        "l1": "1 43275U 18034A   21289.34055690 -.00000090  00000-0  00000+0 0  9990",
        "l2": "2 43275  63.4018 153.1840 0122180   3.4337 356.7500 13.45211069172863"
    },
    "STARLINK-1398": {
        "name": "STARLINK-1398",
        "l1": "1 45699C 20035AU  21289.16128911  .00006274  00000-0  42056-3 0  2895",
        "l2": "2 45699  53.0531  44.1156 0001232 104.0477 120.3911 15.06375190    19"
    },
    "TJS-5": {
        "name": "TJS-5",
        "l1": "1 44978U 20002A   21288.98701477 -.00000361  00000-0  00000-0 0  9991",
        "l2": "2 44978   0.2503 284.7260 0005167 228.7003 334.1668  1.00271746  6605"
    },
    "ZDPS 2B": {
        "name": "ZDPS 2B",
        "l1": "1 40902U 15049D   21289.52007840  .00004523  00000-0  21167-3 0  9996",
        "l2": "2 40902  97.4696 292.7871 0014465 113.4001   5.0361 15.20166158336332"
    },
    "SKYSAT-A": {
        "name": "SKYSAT-A",
        "l1": "1 39418C 13066C   21289.84925926 -.00007852  00000-0 -64263-3 0  2898",
        "l2": "2 39418  97.5810   3.5652 0020263   3.8006 221.2232 14.99263878    10"
    },
    "STARLINK-1482": {
        "name": "STARLINK-1482",
        "l1": "1 45773C 20038AV  21289.14131471  .00008185  00000-0  54844-3 0  2895",
        "l2": "2 45773  53.0538 204.2082 0001801  66.7414  29.3826 15.06387138    11"
    },
    "STARLINK-1217": {
        "name": "STARLINK-1217",
        "l1": "1 45226C 20012BA  21289.15973553  .00006906  00000-0  46287-3 0  2897",
        "l2": "2 45226  53.0553  14.1216 0001022 103.0869 137.9792 15.06380128    12"
    },
    "STARLINK-1297": {
        "name": "STARLINK-1297",
        "l1": "1 45395C 20019AM  21289.16978596  .00006418  00000-0  43005-3 0  2897",
        "l2": "2 45395  53.0532 154.0905 0001712  64.7503 160.8545 15.06387410    11"
    },
    "ZHONGXING-20A": {
        "name": "ZHONGXING-20A",
        "l1": "1 37234U 10064A   21289.23943693 -.00000366  00000-0  00000-0 0  9997",
        "l2": "2 37234   2.0371  91.2832 0002146 144.6282   1.7001  1.00273094 39938"
    },
    "EUTELSAT HOTBIRD 13E": {
        "name": "EUTELSAT HOTBIRD 13E",
        "l1": "1 28946U 06007B   21289.28871517  .00000070  00000-0  00000+0 0  9999",
        "l2": "2 28946   0.0542 144.5394 0007098  57.2062 300.2331  1.00272028 57206"
    },
    "YAOGAN 6": {
        "name": "YAOGAN 6",
        "l1": "1 34839U 09021A   21289.20860402  .00001740  00000-0  65867-4 0  9991",
        "l2": "2 34839  97.0593 276.6732 0029138  89.2865 271.1714 15.27795480693926"
    },
    "STARLINK-1059": {
        "name": "STARLINK-1059",
        "l1": "1 44764C 19074BD  21289.07742679  .00006609  00000-0  44298-3 0  2893",
        "l2": "2 44764  53.0529 214.4990 0001881  76.5240 357.8694 15.06376171    12"
    },
    "STARLINK-1401": {
        "name": "STARLINK-1401",
        "l1": "1 45684C 20035AD  21289.16166571  .00014632  00000-0  98083-3 0  2891",
        "l2": "2 45684  53.0534  64.1183 0001396 104.1052 312.3799 15.06367586    16"
    },
    "STARLINK-1074": {
        "name": "STARLINK-1074",
        "l1": "1 44957C 20001AV  21289.08333119  .00002192  00000-0  14684-3 0  2894",
        "l2": "2 44957  53.0537 314.4770 0001398  72.8959 343.6240 15.06399489    18"
    },
    "STARLINK-26": {
        "name": "STARLINK-26",
        "l1": "1 44240U 19029F   21100.41945393  .20637293  12492-4  12328-2 0  9999",
        "l2": "2 44240  52.9634 161.2403 0004843   7.8568 353.8836 16.41561846106011"
    },
    "STARLINK-1487": {
        "name": "STARLINK-1487",
        "l1": "1 45758C 20038AE  21289.16022617  .00007748  00000-0  51933-3 0  2891",
        "l2": "2 45758  53.0521 224.1280 0001481  69.5680  19.1058 15.06378452    10"
    },
    "STARLINK-1219": {
        "name": "STARLINK-1219",
        "l1": "1 45210C 20012AJ  21289.15538686  .00005377  00000-0  36028-3 0  2897",
        "l2": "2 45210  53.0545  34.1526 0001150  99.4473 308.0666 15.06393021    10"
    },
    "COSMOS 2251 DEB": {
        "name": "COSMOS 2251 DEB",
        "l1": "1 37297U 93036BJM 21289.20259827  .00002629  00000-0  49723-3 0  9993",
        "l2": "2 37297  74.0214 264.9921 0015119  77.9644 282.3218 14.64841521423668"
    },
    "COSMOS 2390": {
        "name": "COSMOS 2390",
        "l1": "1 27464U 02036A   21289.20585944  .00000003  00000-0 -50647-4 0  9993",
        "l2": "2 27464  82.4866 330.9970 0025826  30.9265 329.3328 12.44577653875721"
    },
    "STARLINK-1319": {
        "name": "STARLINK-1319",
        "l1": "1 45379C 20019V   21289.17879300  .00010489  00000-0  70271-3 0  2891",
        "l2": "2 45379  53.0524 174.0489 0001615  59.8614  84.5933 15.06391449    13"
    },
    "SBSS (USA 216)": {
        "name": "SBSS (USA 216)",
        "l1": "1 37168U 10048A   21289.33840010  .00000160  00000-0  26827-4 0  9995",
        "l2": "2 37168  97.8457 148.4284 0001937 108.0103   6.6528 14.81684200597609"
    },
    "ISS (ZARYA)": {
        "name": "ISS (ZARYA)",
        "l1": "1 25544U 98067A   21289.66917104  .00006878  00000-0  13420-3 0  9998",
        "l2": "2 25544  51.6433 102.0486 0004214 118.7154 340.0748 15.48713131307429"
    },
    "MICROSAT-TD": {
        "name": "MICROSAT-TD",
        "l1": "1 43128U 18004T   20332.73716149  .10569677  20755-5  34442-3 0  9994",
        "l2": "2 43128  96.5543  22.8890 0008817 256.0248 104.0076 16.44115419165356"
    },
    "MICROSAT-R DEB": {
        "name": "MICROSAT-R DEB",
        "l1": "1 44134U 19006V   21105.22792654  .04169580  17242-5  17289-2 0  9991",
        "l2": "2 44134  96.0179 213.0060 0039285 312.3327  47.4640 16.21063414110869"
    },
    "CENTAURI-1": {
        "name": "CENTAURI-1",
        "l1": "1 43809U 18099BD  21289.15606852  .00000711  00000-0  68437-4 0  9997",
        "l2": "2 43809  97.6531 357.3927 0015439  14.0229 346.1418 14.95959642156242"
    },
    "PRISMA": {
        "name": "PRISMA",
        "l1": "1 44072U 19015A   21289.47826910  .00000107  00000-0  19403-4 0  9991",
        "l2": "2 44072  97.8762   2.7669 0001407  96.3573 263.7803 14.83663905139280"
    },
    "CENTAURI-2": {
        "name": "CENTAURI-2",
        "l1": "1 43722U 18096D   21289.17438968  .00007490  00000-0  25066-3 0  9992",
        "l2": "2 43722  97.3799   6.4643 0015598 195.9562 164.1190 15.31141965160625"
    },
    "PROXIMA I": {
        "name": "PROXIMA I",
        "l1": "1 43694U 18088E   21289.10046153  .00002546  00000-0  10498-3 0  9995",
        "l2": "2 43694  85.0276 115.3546 0016393 299.5158  60.4449 15.23417426162744"
    },
    "PROXIMA II": {
        "name": "PROXIMA II",
        "l1": "1 43696U 18088G   21289.03330503  .00002580  00000-0  10641-3 0  9992",
        "l2": "2 43696  85.0278 115.4105 0016446 299.7106  60.2499 15.23412736162724"
    },
    "CENTAURI-3 (TYVAK-0210)": {
        "name": "CENTAURI-3 (TYVAK-0210)",
        "l1": "1 47966U 21023B   21288.82453781  .00001674  00000-0  13240-3 0  9990",
        "l2": "2 47966  45.0025  92.4198 0005304 356.9395   3.1446 15.05059044 31167"
    },
    "SWISSCUBE": {
        "name": "SWISSCUBE",
        "l1": "1 35932U 09051B   21289.12059436  .00000258  00000-0  68960-4 0  9997",
        "l2": "2 35932  98.5927 132.8937 0008690  78.4927 281.7245 14.56594201640520"
    },
    "GAOFEN 1": {
        "name": "GAOFEN 1",
        "l1": "1 39150U 13018A   21289.47553707  .00000156  00000-0  29507-4 0  9990",
        "l2": "2 39150  97.8203 358.5483 0018728 352.6956   7.3978 14.76578291456736"
    },
    "NOAA 19": {
        "name": "NOAA 19",
        "l1": "1 33591U 09005A   21289.32642084  .00000052  00000-0  53180-4 0  9994",
        "l2": "2 33591  99.1773 312.9925 0014425 150.3030 209.8962 14.12501072653988"
    },
    "SAUDISAT 1C (SO-50)": {
        "name": "SAUDISAT 1C (SO-50)",
        "l1": "1 27607U 02058C   21289.32784622  .00000156  00000-0  42784-4 0  9994",
        "l2": "2 27607  64.5556 328.7020 0055725 346.1834  13.7740 14.75803862 12559"
    },
    "TERRA": {
        "name": "TERRA",
        "l1": "1 25994U 99068A   21289.22795328  .00000102  00000-0  32628-4 0  9999",
        "l2": "2 25994  98.1660   1.3783 0001269  91.1273   2.4578 14.57137379160936"
    }
}